NORAD_CAT_ID,OBJECT_NAME,OBJECT_TYPE,EPOCH,MEAN_MOTION,ECCENTRICITY,INCLINATION,RA_OF_ASC_NODE,ARG_OF_PERICENTER,MEAN_ANOMALY,BSTAR,MEAN_MOTION_DOT,MEAN_MOTION_DDOT,TLE_LINE0,TLE_LINE1,TLE_LINE2,SEMIMAJOR_AXIS,PERIOD,APOGEE,PERIGEE,DECAYED
53553.0,STARLINK-4501,PAYLOAD,2022-09-21 06:00:00,15.73210392,0.0003115,53.2175,354.0924,11.1071,104.0849,6.2728e-05,8.195e-05,0.0,0 STARLINK-4501,1 53553U 22101AC  22264.25001157  .00008195  00000-0  62728-4 0  9996,2 53553  53.2175 354.0924 0003115  11.1071 104.0849 15.73210392  5132,6727.866,91.533,351.826,347.635,0.0
53553.0,STARLINK-4501,PAYLOAD,2022-09-21 22:00:00,15.732563399999998,0.000337,53.2175,350.7945,11.1191,281.9318,-0.00067919,-0.00095136,0.0,0 STARLINK-4501,1 53553U 22101AC  22264.91667824 -.00095136  00000-0 -67919-3 0  9997,2 53553  53.2175 350.7945 0003370  11.1191 281.9318 15.73256340  1308,6727.735,91.53,351.867,347.332,0.0
53553.0,STARLINK-4501,PAYLOAD,2022-09-22 06:00:00,15.7320109,0.0003266,53.2179,349.1441,9.4787,12.5187,-0.00034944,-0.00049395,0.0,0 STARLINK-4501,1 53553U 22101AC  22265.25001157 -.00049395  00000-0 -34944-3 0  9994,2 53553  53.2179 349.1441 0003266   9.4787  12.5187 15.73201090  5285,6727.892,91.533,351.954,347.56,0.0
53553.0,STARLINK-4501,PAYLOAD,2022-09-22 14:00:01,15.73127695,0.0003595,53.2179,347.4967,7.9008,103.0102,0.00040474,0.00056402,0.0,0 STARLINK-4501,1 53553U 22101AC  22265.58334491  .00056402  00000-0  40474-3 0  9990,2 53553  53.2179 347.4967 0003595   7.9008 103.0102 15.73127695  1303,6728.101,91.537,352.385,347.548,0.0
53553.0,STARLINK-4501,PAYLOAD,2022-09-22 22:00:00,15.73132195,0.0003536,53.2175,345.8383,9.9088,189.8793,0.00075975,0.00107086,0.0,0 STARLINK-4501,1 53553U 22101AC  22265.91667824  .00107086  00000-0  75975-3 0  9995,2 53553  53.2175 345.8383 0003536   9.9088 189.8793 15.73132195  1307,6728.0880000000025,91.537,352.333,347.574,0.0
53553.0,STARLINK-4501,PAYLOAD,2022-09-23 14:00:01,15.73205419,0.0003617,53.2175,342.5384,11.1624,6.4544,-1.5634e-05,-2.819e-05,0.0,0 STARLINK-4501,1 53553U 22101AC  22266.58334491 -.00002819  00000-0 -15634-4 0  9997,2 53553  53.2175 342.5384 0003617  11.1624   6.4544 15.73205419  1301,6727.88,91.533,352.17800000000005,347.311,0.0
53553.0,STARLINK-4501,PAYLOAD,2022-09-23 22:00:00,15.732842300000002,0.000343,53.2176,340.8942,4.4214,102.2024,-0.00059846,-0.00084112,0.0,0 STARLINK-4501,1 53553U 22101AC  22266.91667824 -.00084112  00000-0 -59846-3 0  9991,2 53553  53.2176 340.8942 0003430   4.4214 102.2024 15.73284230  5553,6727.655,91.528,351.82800000000015,347.212,0.0
53553.0,STARLINK-4501,PAYLOAD,2022-09-24 06:00:00,15.7311696,0.0003035,53.2172,339.2399,342.914,212.7507,-0.0037461999999999,-0.0049507,0.0,0 STARLINK-4501,1 53553U 22101AC  22267.25001157 -.00495070  00000-0 -37462-2 0  9998,2 53553  53.2172 339.2399 0003035 342.9140 212.7507 15.73116960  5609,6728.132,91.538,352.039,347.955,0.0
53553.0,STARLINK-4501,PAYLOAD,2022-09-24 14:00:01,15.72928409,0.0003819,53.2177,337.5916,301.0668,343.2609,-0.0086977999999999,-0.01083711,0.0,0 STARLINK-4501,1 53553U 22101AC  22267.58335648 -.01083711  00000-0 -86978-2 0  9991,2 53553  53.2177 337.5916 0003819 301.0668 343.2609 15.72928409  5657,6728.67,91.549,353.10400000000016,347.965,0.0
53553.0,STARLINK-4501,PAYLOAD,2022-09-24 22:00:00,15.72148547,0.0005711,53.2176,335.9430000000001,279.7598,92.626,-0.0086909,-0.01051857,0.0,0 STARLINK-4501,1 53553U 22101AC  22267.91667824 -.01051857  00000-0 -86909-2 0  9992,2 53553  53.2176 335.9430 0005711 279.7598  92.6260 15.72148547  1308,6730.895,91.594,356.60400000000016,348.916,0.0
53553.0,STARLINK-4501,PAYLOAD,2022-09-25 14:00:01,15.70634399,0.0005707999999999,53.2176,332.6567,270.6704,275.2036,-0.009344,-0.01059497,0.0,0 STARLINK-4501,1 53553U 22101AC  22268.58334491 -.01059497  00000-0 -93440-2 0  9993,2 53553  53.2176 332.6567 0005708 270.6704 275.2036 15.70634399  1301,6735.22,91.683,360.929,353.24,0.0
53553.0,STARLINK-4501,PAYLOAD,2022-09-25 22:00:01,15.6986018,0.0004008999999999,53.2175,331.0139,268.3042,3.0177,-0.0094007,-0.01033499,0.0,0 STARLINK-4501,1 53553U 22101AC  22268.91668981 -.01033499  00000-0 -94007-2 0  9998,2 53553  53.2175 331.0139 0004009 268.3042   3.0177 15.69860180  1300,6737.434,91.728,362.0,356.598,0.0
53553.0,STARLINK-4501,PAYLOAD,2022-09-26 10:00:00,15.68727899,0.00025,53.2174,328.5565,292.3912,285.2158,-0.0099814,-0.01044684,0.0,0 STARLINK-4501,1 53553U 22101AC  22269.41667824 -.01044684  00000-0 -99814-2 0  9998,2 53553  53.2174 328.5565 0002500 292.3912 285.2158 15.68727899  5945,6740.676,91.794,364.226,360.855,0.0
53553.0,STARLINK-4501,PAYLOAD,2022-09-26 14:00:01,15.68359531,0.0001789,53.2176,327.7385,319.5827,119.6811,-0.010322,-0.0106171,0.0,0 STARLINK-4501,1 53553U 22101AC  22269.58334491 -.01061710  00000-0 -10322-1 0  9992,2 53553  53.2176 327.7385 0001789 319.5827 119.6811 15.68359531  1309,6741.731,91.816,364.802,362.39,0.0
53553.0,STARLINK-4501,PAYLOAD,2022-09-26 22:00:00,15.67593014,0.000107,53.2176,326.1011,51.4073,110.4992,-0.010535,-0.01050825,0.0,0 STARLINK-4501,1 53553U 22101AC  22269.91667824 -.01050825  00000-0 -10535-1 0  9999,2 53553  53.2176 326.1011 0001070  51.4073 110.4992 15.67593014  1300,6743.929,91.861,366.515,365.072,0.0
53553.0,STARLINK-4501,PAYLOAD,2022-09-27 06:00:00,15.66855723,0.0001203,53.2175,324.4674,70.4358,173.1851,-0.011181,-0.01078867,0.0,0 STARLINK-4501,1 53553U 22101AC  22270.25001157 -.01078867  00000-0 -11181-1 0  9993,2 53553  53.2175 324.4674 0001203  70.4358 173.1851 15.66855723  6076,6746.044,91.904,368.721,367.097,0.0
53553.0,STARLINK-4501,PAYLOAD,2022-09-27 14:00:01,15.66073357,0.0001147,53.2175,322.837,59.6458,264.7984,-0.011179,-0.01048287,0.0,0 STARLINK-4501,1 53553U 22101AC  22270.58334491 -.01048287  00000-0 -11179-1 0  9999,2 53553  53.2175 322.8370 0001147  59.6458 264.7984 15.66073357  1308,6748.291,91.95,370.93,369.382,0.0
53553.0,STARLINK-4501,PAYLOAD,2022-09-27 22:00:01,15.65313941,0.0001092,53.2175,321.2048,59.677,344.7344,-0.011531,-0.01048547,0.0,0 STARLINK-4501,1 53553U 22101AC  22270.91668981 -.01048547  00000-0 -11531-1 0  9991,2 53553  53.2175 321.2048 0001092  59.6770 344.7344 15.65313941  1303,6750.473000000001,91.994,373.075,371.601,0.0
53553.0,STARLINK-4501,PAYLOAD,2022-09-28 14:00:01,15.63791026,0.000135,53.2174,317.952,57.3785,144.0308,-0.012159,-0.01041168,0.0,0 STARLINK-4501,1 53553U 22101AC  22271.58334491 -.01041168  00000-0 -12159-1 0  9990,2 53553  53.2174 317.9520 0001350  57.3785 144.0308 15.63791026  1300,6754.855,92.084,377.632,375.8080000000001,0.0
53553.0,STARLINK-4501,PAYLOAD,2022-09-28 22:00:00,15.63035517,0.0001092,53.2176,316.3254,84.8221,193.7498,-0.012618,-0.01064007,0.0,0 STARLINK-4501,1 53553U 22101AC  22271.91667824 -.01064007  00000-0 -12618-1 0  9993,2 53553  53.2176 316.3254 0001092  84.8221 193.7498 15.63035517  1309,6757.031999999997,92.128,379.634,378.159,0.0
53553.0,STARLINK-4501,PAYLOAD,2022-09-29 06:00:00,15.62298516,0.0001095999999999,53.2173,314.7023,54.3345,300.4766,-0.013404,-0.01094891,0.0,0 STARLINK-4501,1 53553U 22101AC  22272.25001157 -.01094891  00000-0 -13404-1 0  9990,2 53553  53.2173 314.7023 0001096  54.3345 300.4766 15.62298516  6382,6759.156,92.172,381.762,380.281,0.0
53553.0,STARLINK-4501,PAYLOAD,2022-09-29 14:00:01,15.61525367,0.0001423,53.2172,313.0828,48.29,21.8634,-0.013531,-0.01074438,0.0,0 STARLINK-4501,1 53553U 22101AC  22272.58334491 -.01074438  00000-0 -13531-1 0  9992,2 53553  53.2172 313.0828 0001423  48.2900  21.8634 15.61525367  1300,6761.387,92.218,384.214,382.29,0.0
53553.0,STARLINK-4501,PAYLOAD,2022-09-29 22:00:00,15.60755355,0.0001309,53.2175,311.4624,56.4175,88.1666,-0.01374,-0.01060194,0.0,0 STARLINK-4501,1 53553U 22101AC  22272.91667824 -.01060194  00000-0 -13740-1 0  9994,2 53553  53.2175 311.4624 0001309  56.4175  88.1666 15.60755355  1309,6763.611,92.263,386.361,384.591,0.0
53553.0,STARLINK-4501,PAYLOAD,2022-09-30 06:00:02,15.6002036,0.0001359,53.2172,309.8445,61.1402,157.0092,-0.0146229999999999,-0.01093426,0.0,0 STARLINK-4501,1 53553U 22101AC  22273.25002315 -.01093426  00000-0 -14623-1 0  9995,2 53553  53.2172 309.8445 0001359  61.1402 157.0092 15.60020360  6540,6765.735,92.306,388.52,386.681,0.0
53553.0,STARLINK-4501,PAYLOAD,2022-09-30 14:00:01,15.59239927,0.0001311,53.2169,308.2307,52.7718,237.9202,-0.014612,-0.01063259,0.0,0 STARLINK-4501,1 53553U 22101AC  22273.58334491 -.01063259  00000-0 -14612-1 0  9993,2 53553  53.2169 308.2307 0001311  52.7718 237.9202 15.59239927  1309,6767.993,92.353,390.745,388.97,0.0
53553.0,STARLINK-4501,PAYLOAD,2022-09-30 22:00:00,15.58476911,0.0001197,53.2173,306.616,49.4165,312.9656,-0.014999,-0.01060344,0.0,0 STARLINK-4501,1 53553U 22101AC  22273.91667824 -.01060344  00000-0 -14999-1 0  9999,2 53553  53.2173 306.6160 0001197  49.4165 312.9656 15.58476911  1306,6770.201,92.398,392.877,391.256,0.0
53553.0,STARLINK-4501,PAYLOAD,2022-10-01 14:00:01,15.56978843,0.0001468,53.217,303.3952,50.7347,92.271,-0.016302,-0.01086443,0.0,0 STARLINK-4501,1 53553U 22101AC  22274.58334491 -.01086443  00000-0 -16302-1 0  9992,2 53553  53.2170 303.3952 0001468  50.7347  92.2710 15.56978843  6756,6774.543000000002,92.487,397.403,395.414,0.0
53553.0,STARLINK-4501,PAYLOAD,2022-10-01 22:00:00,15.56196855,0.0001367,53.2174,301.7859,54.1982,157.7684,-0.016287,-0.01056931,0.0,0 STARLINK-4501,1 53553U 22101AC  22274.91667824 -.01056931  00000-0 -16287-1 0  9999,2 53553  53.2174 301.7859 0001367  54.1982 157.7684 15.56196855  1307,6776.813,92.533,399.604,397.751,0.0
53553.0,STARLINK-4501,PAYLOAD,2022-10-02 14:00:01,15.54642686,0.0001143,53.217,298.5764,47.4698,299.6711,-0.016358,-0.01006608,0.0,0 STARLINK-4501,1 53553U 22101AC  22275.58334491 -.01006608  00000-0 -16358-1 0  9999,2 53553  53.2170 298.5764 0001143  47.4698 299.6711 15.54642686  1305,6781.328,92.626,403.969,402.418,0.0
